O3B MPOWER F1           
1 54755U 22174A   23348.45961728 -.00000009  00000+0  00000+0 0  9992
2 54755   0.0557  16.5788 0005894 260.3391 111.8230  5.00118345 19542
